{"type": "FeatureCollection", "features": [ {"type": "Feature", "properties": {"norad_id": 67070, "name": "DEAR-5", "group": "last-30-days", "lat": 36.91411144787879, "lon": 162.54609309608793, "alt_km": 498.2679761154086, "timestamp": "2025-12-23T07:45:08.119526+00:00", "meta": {"OBJECT_NAME": "DEAR-5", "OBJECT_ID": "2025-296B", "EPOCH": "2025-12-22T20:11:22.536384", "MEAN_MOTION": 15.16903887, "ECCENTRICITY": 0.00161183, "INCLINATION": 41.3552, "RA_OF_ASC_NODE": 43.9459, "ARG_OF_PERICENTER": 99.4562, "MEAN_ANOMALY": 260.8082, "EPHEMERIS_TYPE": 0, "CLASSIFICATION_TYPE": "U", "NORAD_CAT_ID": 67070, "ELEMENT_SET_NO": 999, "REV_AT_EPOCH": 148, "BSTAR": 0.00025683275, "MEAN_MOTION_DOT": 4.972e-05, "MEAN_MOTION_DDOT": 0}, "tle": {"line1": "1 67070U 25296B   25356.84123306  .00004972  00000+0  25683-3 0  9990", "line2": "2 67070  41.3552  43.9459 0016118  99.4562 260.8082 15.16903887  1485"}}, "geometry": {"type": "Point", "coordinates": [162.54609309608793, 36.91411144787879]}}, {"type": "Feature", "properties": {"norad_id": 67071, "name": "KZ-11 R/B", "group": "last-30-days", "lat": 41.17982032107853, "lon": 138.3054694461749, "alt_km": 277.36278390143616, "timestamp": "2025-12-23T07:45:08.119537+00:00", "meta": {"OBJECT_NAME": "KZ-11 R/B", "OBJECT_ID": "2025-296C", "EPOCH": "2025-12-22T14:19:47.548704", "MEAN_MOTION": 15.40866128, "ECCENTRICITY": 0.04601667, "INCLINATION": 41.3101, "RA_OF_ASC_NODE": 47.6253, "ARG_OF_PERICENTER": 22.6091, "MEAN_ANOMALY": 339.4322, "EPHEMERIS_TYPE": 0, "CLASSIFICATION_TYPE": "U", "NORAD_CAT_ID": 67071, "ELEMENT_SET_NO": 999, "REV_AT_EPOCH": 142, "BSTAR": 0.00047260137, "MEAN_MOTION_DOT": 0.08085331, "MEAN_MOTION_DDOT": 7.163122e-06}, "tle": {"line1": "1 67071U 25296C   25356.59707811  .08085331  71631-5  47260-3 0  9997", "line2": "2 67071  41.3101  47.6253 0460166  22.6091 339.4322 15.40866128  1427"}}, "geometry": {"type": "Point", "coordinates": [138.3054694461749, 41.17982032107853]}}, {"type": "Feature", "properties": {"norad_id": 67072, "name": "ELECTRON R/B", "group": "last-30-days", "lat": 23.473730100756786, "lon": -31.01808225510426, "alt_km": 172.62011337059266, "timestamp": "2025-12-23T07:45:08.119547+00:00", "meta": {"OBJECT_NAME": "ELECTRON R/B", "OBJECT_ID": "2025-297A", "EPOCH": "2025-12-22T20:41:30.293952", "MEAN_MOTION": 16.12797911, "ECCENTRICITY": 0.0118846, "INCLINATION": 97.4524, "RA_OF_ASC_NODE": 145.1987, "ARG_OF_PERICENTER": 196.5335, "MEAN_ANOMALY": 163.2062, "EPHEMERIS_TYPE": 0, "CLASSIFICATION_TYPE": "U", "NORAD_CAT_ID": 67072, "ELEMENT_SET_NO": 999, "REV_AT_EPOCH": 139, "BSTAR": 0.0011302234, "MEAN_MOTION_DOT": 0.04330228, "MEAN_MOTION_DDOT": 2.181796e-06}, "tle": {"line1": "1 67072U 25297A   25356.86215618  .04330228  21818-5  11302-2 0  9991", "line2": "2 67072  97.4524 145.1987 0118846 196.5335 163.2062 16.12797911  1397"}}, "geometry": {"type": "Point", "coordinates": [-31.01808225510426, 23.473730100756786]}}, {"type": "Feature", "properties": {"norad_id": 67073, "name": "RAISE-4", "group": "last-30-days", "lat": 7.065147128577823, "lon": 143.65311236605064, "alt_km": 546.23734954463, "timestamp": "2025-12-23T07:45:08.119556+00:00", "meta": {"OBJECT_NAME": "RAISE-4", "OBJECT_ID": "2025-297B", "EPOCH": "2025-12-22T22:09:38.248704", "MEAN_MOTION": 15.07206623, "ECCENTRICITY": 0.00114949, "INCLINATION": 97.4855, "RA_OF_ASC_NODE": 144.1981, "ARG_OF_PERICENTER": 282.8307, "MEAN_ANOMALY": 77.1637, "EPHEMERIS_TYPE": 0, "CLASSIFICATION_TYPE": "U", "NORAD_CAT_ID": 67073, "ELEMENT_SET_NO": 999, "REV_AT_EPOCH": 132, "BSTAR": 0.00030405331, "MEAN_MOTION_DOT": 4.523e-05, "MEAN_MOTION_DDOT": 0}, "tle": {"line1": "1 67073U 25297B   25356.92335936  .00004523  00000+0  30405-3 0  9997", "line2": "2 67073  97.4855 144.1981 0011494 282.8307  77.1637 15.07206623  1329"}}, "geometry": {"type": "Point", "coordinates": [143.65311236605064, 7.065147128577823]}}, {"type": "Feature", "properties": {"norad_id": 67074, "name": "ELECTRON KICK STAGE R/B", "group": "last-30-days", "lat": 12.206096394540031, "lon": -33.08359169472543, "alt_km": 332.69376967187054, "timestamp": "2025-12-23T07:45:08.119568+00:00", "meta": {"OBJECT_NAME": "ELECTRON KICK STAGE R/B", "OBJECT_ID": "2025-297C", "EPOCH": "2025-12-22T20:13:53.016672", "MEAN_MOTION": 15.5817004, "ECCENTRICITY": 0.01952116, "INCLINATION": 97.482, "RA_OF_ASC_NODE": 144.7824, "ARG_OF_PERICENTER": 232.8342, "MEAN_ANOMALY": 125.4951, "EPHEMERIS_TYPE": 0, "CLASSIFICATION_TYPE": "U", "NORAD_CAT_ID": 67074, "ELEMENT_SET_NO": 999, "REV_AT_EPOCH": 135, "BSTAR": 0.0017309547, "MEAN_MOTION_DOT": 0.00328958, "MEAN_MOTION_DDOT": 3.1004017e-05}, "tle": {"line1": "1 67074U 25297C   25356.84297473  .00328958  31004-4  17310-2 0  9995", "line2": "2 67074  97.4820 144.7824 0195211 232.8342 125.4951 15.58170040  1356"}}, "geometry": {"type": "Point", "coordinates": [-33.08359169472543, 12.206096394540031]}}, {"type": "Feature", "properties": {"norad_id": 67075, "name": "STARLINK-36230", "group": "last-30-days", "lat": 64.56625593088677, "lon": -10.053425504117063, "alt_km": 303.7363563086283, "timestamp": "2025-12-23T07:45:08.119579+00:00", "meta": {"OBJECT_NAME": "STARLINK-36230", "OBJECT_ID": "2025-298A", "EPOCH": "2025-12-22T22:00:03.000096", "MEAN_MOTION": 15.89015224, "ECCENTRICITY": 0.00045924, "INCLINATION": 69.9969, "RA_OF_ASC_NODE": 221.1208, "ARG_OF_PERICENTER": 274.9587, "MEAN_ANOMALY": 28.1994, "EPHEMERIS_TYPE": 0, "CLASSIFICATION_TYPE": "U", "NORAD_CAT_ID": 67075, "ELEMENT_SET_NO": 999, "REV_AT_EPOCH": 261, "BSTAR": -0.0042624258, "MEAN_MOTION_DOT": -0.01214537, "MEAN_MOTION_DDOT": 0.00042029021}, "tle": {"line1": "1 67075U 25298A   25356.91670139 -.01214537  42029-3 -42624-2 0  9993", "line2": "2 67075  69.9969 221.1208 0004592 274.9587  28.1994 15.89015224  2612"}}, "geometry": {"type": "Point", "coordinates": [-10.053425504117063, 64.56625593088677]}}, {"type": "Feature", "properties": {"norad_id": 67076, "name": "STARLINK-36240", "group": "last-30-days", "lat": 63.350959991237225, "lon": -6.602336025069105, "alt_km": 303.7497171563764, "timestamp": "2025-12-23T07:45:08.119589+00:00", "meta": {"OBJECT_NAME": "STARLINK-36240", "OBJECT_ID": "2025-298B", "EPOCH": "2025-12-22T22:00:03.000096", "MEAN_MOTION": 15.89083952, "ECCENTRICITY": 0.00045359, "INCLINATION": 69.9969, "RA_OF_ASC_NODE": 221.1184, "ARG_OF_PERICENTER": 271.1055, "MEAN_ANOMALY": 33.9509, "EPHEMERIS_TYPE": 0, "CLASSIFICATION_TYPE": "U", "NORAD_CAT_ID": 67076, "ELEMENT_SET_NO": 999, "REV_AT_EPOCH": 261, "BSTAR": -0.0045802314, "MEAN_MOTION_DOT": -0.01308632, "MEAN_MOTION_DDOT": 0.00048267494}, "tle": {"line1": "1 67076U 25298B   25356.91670139 -.01308632  48267-3 -45802-2 0  9995", "line2": "2 67076  69.9969 221.1184 0004535 271.1055  33.9509 15.89083952  2611"}}, "geometry": {"type": "Point", "coordinates": [-6.602336025069105, 63.350959991237225]}}, {"type": "Feature", "properties": {"norad_id": 67077, "name": "STARLINK-36243", "group": "last-30-days", "lat": 61.8053471982264, "lon": -2.867914792841179, "alt_km": 304.0635429558761, "timestamp": "2025-12-23T07:45:08.119599+00:00", "meta": {"OBJECT_NAME": "STARLINK-36243", "OBJECT_ID": "2025-298C", "EPOCH": "2025-12-22T22:00:03.000096", "MEAN_MOTION": 15.89151866, "ECCENTRICITY": 0.00047227, "INCLINATION": 69.9969, "RA_OF_ASC_NODE": 221.1159, "ARG_OF_PERICENTER": 272.3343, "MEAN_ANOMALY": 34.997, "EPHEMERIS_TYPE": 0, "CLASSIFICATION_TYPE": "U", "NORAD_CAT_ID": 67077, "ELEMENT_SET_NO": 999, "REV_AT_EPOCH": 261, "BSTAR": -0.0049550678, "MEAN_MOTION_DOT": -0.01419477, "MEAN_MOTION_DDOT": 0.00056118105}, "tle": {"line1": "1 67077U 25298C   25356.91670139 -.01419477  56118-3 -49551-2 0  9995", "line2": "2 67077  69.9969 221.1159 0004722 272.3343  34.9970 15.89151866  2618"}}, "geometry": {"type": "Point", "coordinates": [-2.867914792841179, 61.8053471982264]}}, {"type": "Feature", "properties": {"norad_id": 67078, "name": "STARLINK-36236", "group": "last-30-days", "lat": 60.55218083061009, "lon": -0.24609216139041845, "alt_km": 304.22296996333444, "timestamp": "2025-12-23T07:45:08.119609+00:00", "meta": {"OBJECT_NAME": "STARLINK-36236", "OBJECT_ID": "2025-298D", "EPOCH": "2025-12-22T22:00:03.000096", "MEAN_MOTION": 15.89207765, "ECCENTRICITY": 0.00048036, "INCLINATION": 69.9969, "RA_OF_ASC_NODE": 221.1136, "ARG_OF_PERICENTER": 271.7521, "MEAN_ANOMALY": 37.3235, "EPHEMERIS_TYPE": 0, "CLASSIFICATION_TYPE": "U", "NORAD_CAT_ID": 67078, "ELEMENT_SET_NO": 999, "REV_AT_EPOCH": 261, "BSTAR": -0.0052230176, "MEAN_MOTION_DOT": -0.01499585, "MEAN_MOTION_DDOT": 0.00062137385}, "tle": {"line1": "1 67078U 25298D   25356.91670139 -.01499585  62137-3 -52230-2 0  9990", "line2": "2 67078  69.9969 221.1136 0004803 271.7521  37.3235 15.89207765  2616"}}, "geometry": {"type": "Point", "coordinates": [-0.24609216139041845, 60.55218083061009]}}, {"type": "Feature", "properties": {"norad_id": 67079, "name": "STARLINK-36159", "group": "last-30-days", "lat": 58.842317030841286, "lon": 2.885800522082362, "alt_km": 304.4424118710731, "timestamp": "2025-12-23T07:45:08.119620+00:00", "meta": {"OBJECT_NAME": "STARLINK-36159", "OBJECT_ID": "2025-298E", "EPOCH": "2025-12-22T22:00:03.000096", "MEAN_MOTION": 15.89266419, "ECCENTRICITY": 0.00047883, "INCLINATION": 69.997, "RA_OF_ASC_NODE": 221.1111, "ARG_OF_PERICENTER": 272.6553, "MEAN_ANOMALY": 38.7218, "EPHEMERIS_TYPE": 0, "CLASSIFICATION_TYPE": "U", "NORAD_CAT_ID": 67079, "ELEMENT_SET_NO": 999, "REV_AT_EPOCH": 261, "BSTAR": -0.0055819903, "MEAN_MOTION_DOT": -0.01606099, "MEAN_MOTION_DDOT": 0.0007057785}, "tle": {"line1": "1 67079U 25298E   25356.91670139 -.01606099  70578-3 -55820-2 0  9997", "line2": "2 67079  69.9970 221.1111 0004788 272.6553  38.7218 15.89266419  2616"}}, "geometry": {"type": "Point", "coordinates": [2.885800522082362, 58.842317030841286]}}]}